ONEWEB-0327             
1 49196U 21083L   23280.69306100  .00000043  00000+0  76868-4 0  9998
2 49196  87.9281 171.0736 0001631  93.3920 266.7399 13.18682459101683
ONEWEB-0328             
1 49197U 21083M   23279.93124651 -.00000512  00000+0 -14365-2 0  9998
2 49197  87.9047 156.0821 0001450  73.5116 286.6173 13.13471572101697
ONEWEB-0331             
1 49198U 21083N   23280.40957593  .00000038  00000+0  62760-4 0  9997
2 49198  87.9218 171.1460 0001590  79.5873 280.5438 13.18688259100352
ONEWEB-0333             
1 49199U 21083P   23280.68774509 -.00000263  00000+0 -75594-3 0  9992
2 49199  87.9047 155.9347 0001938  73.3601 286.7741 13.13471415103092
ONEWEB-0334             
1 49200U 21083Q   23280.56057401  .00000144  00000+0  32106-3 0  9995
2 49200  87.9148 110.3241 0002602  80.5837 279.5591 13.20772026106956
ONEWEB-0335             
1 49201U 21083R   23280.37880416 -.00000327  00000+0 -93045-3 0  9999
2 49201  87.9045 155.9850 0001610  72.4783 287.6522 13.13468952101773
ONEWEB-0336             
1 49202U 21083S   23280.72796042  .00000396  00000+0  10493-2 0  9999
2 49202  87.9044 155.9139 0001833  75.1302 285.0030 13.13470185103114
ONEWEB-0337             
1 49203U 21083T   23280.58404321  .00000210  00000+0  54002-3 0  9990
2 49203  87.9043 155.9410 0001526  75.3870 284.7428 13.13466939101798
